NORAD_CAT_ID,OBJECT_NAME,OBJECT_TYPE,EPOCH,MEAN_MOTION,ECCENTRICITY,INCLINATION,RA_OF_ASC_NODE,ARG_OF_PERICENTER,MEAN_ANOMALY,BSTAR,MEAN_MOTION_DOT,MEAN_MOTION_DDOT,TLE_LINE0,TLE_LINE1,TLE_LINE2,SEMIMAJOR_AXIS,PERIOD,APOGEE,PERIGEE,DECAYED
49165.0,STARLINK-3052,PAYLOAD,2024-01-21 05:55:38,14.98330867,0.0002491,70.0013,97.1807,259.898,100.1898,5.2667e-05,5.36e-06,0.0,0 STARLINK-3052,1 49165U 21082AM  24021.24697174  .00000536  00000-0  52667-4 0  9991,2 49165  70.0013  97.1807 0002491 259.8980 100.1898 14.98330867130579,6950.19,96.107,573.787,570.324,0.0
49165.0,STARLINK-3052,PAYLOAD,2024-01-21 15:32:26,14.98328357,0.0002531,70.0011,96.1708,258.8549,101.2325,1.6834e-05,1.08e-06,0.0,0 STARLINK-3052,1 49165U 21082AM  24021.64753409  .00000108  00000-0  16834-4 0  9990,2 49165  70.0011  96.1708 0002531 258.8549 101.2325 14.98328357130647,6950.198,96.107,573.822,570.304,0.0
49165.0,STARLINK-3052,PAYLOAD,2024-01-22 05:57:39,14.98326772,0.0002562,70.001,94.6572,256.7541,103.3332,1.0634e-05,3.4e-07,0.0,0 STARLINK-3052,1 49165U 21082AM  24022.24837584  .00000034  00000-0  10634-4 0  9994,2 49165  70.0010  94.6572 0002562 256.7541 103.3332 14.98326772130720,6950.203,96.107,573.849,570.287,0.0
49165.0,STARLINK-3052,PAYLOAD,2024-01-22 13:58:20,14.9832491,0.0002626,70.0009,93.8155,254.7071,105.3798,-1.7013e-05,-2.96e-06,0.0,0 STARLINK-3052,1 49165U 21082AM  24022.58217836 -.00000296  00000-0 -17013-4 0  9993,2 49165  70.0009  93.8155 0002626 254.7071 105.3798 14.98324910130778,6950.209,96.107,573.899,570.249,0.0
49165.0,STARLINK-3052,PAYLOAD,2024-01-23 05:59:40,14.98329722,0.000248,70.0022,92.133,251.6991,108.3899,0.0001007,1.109e-05,0.0,0 STARLINK-3052,1 49165U 21082AM  24023.24977251  .00001109  00000-0  10070-3 0  9998,2 49165  70.0022  92.1330 0002480 251.6991 108.3899 14.98329722130877,6950.194,96.107,573.782,570.335,0.0
49165.0,STARLINK-3052,PAYLOAD,2024-01-23 10:48:04,14.98335414,0.000275,70.0005,91.6264,258.5724,101.5126,9.0452e-05,9.87e-06,0.0,0 STARLINK-3052,1 49165U 21082AM  24023.45004893  .00000987  00000-0  90452-4 0  9990,2 49165  70.0005  91.6264 0002750 258.5724 101.5126 14.98335414130916,6950.176,96.107,573.952,570.13,0.0
49165.0,STARLINK-3052,PAYLOAD,2024-01-23 14:00:20,14.98337997,0.0002738,70.0003,91.2894,257.5907,102.4945,0.00011928,1.331e-05,0.0,0 STARLINK-3052,1 49165U 21082AM  24023.58356626  .00001331  00000-0  11928-3 0  9992,2 49165  70.0003  91.2894 0002738 257.5907 102.4945 14.98337997130925,6950.168,96.106,573.936,570.13,0.0
49165.0,STARLINK-3052,PAYLOAD,2024-01-24 10:50:06,14.98319569,0.0002627,70.0012,89.1021,242.0355,118.0539,9.4316e-06,2e-07,0.0,0 STARLINK-3052,1 49165U 21082AM  24024.45146208  .00000020  00000-0  94316-5 0  9990,2 49165  70.0012  89.1021 0002627 242.0355 118.0539 14.98319569131069,6950.225,96.108,573.916,570.264,0.0
49165.0,STARLINK-3052,PAYLOAD,2024-01-24 14:02:22,14.98319125,0.0002629,70.001,88.7652,246.8003,113.288,-5.4313e-07,-9.9e-07,0.0,0 STARLINK-3052,1 49165U 21082AM  24024.58498373 -.00000099  00000-0 -54313-6 0  9999,2 49165  70.0010  88.7652 0002629 246.8003 113.2880 14.98319125131071,6950.227,96.108,573.919,570.264,0.0
49165.0,STARLINK-3052,PAYLOAD,2024-01-25 10:52:06,14.98339529,0.0003019,69.9996,86.575,263.5652,96.5164,2.3893e-05,1.92e-06,0.0,0 STARLINK-3052,1 49165U 21082AM  24025.45284960  .00000192  00000-0  23893-4 0  9990,2 49165  69.9996  86.5750 0003019 263.5652  96.5164 14.98339529131210,6950.163,96.106,574.127,569.93,0.0
49165.0,STARLINK-3052,PAYLOAD,2024-01-25 14:04:22,14.98340642,0.000287,69.9997,86.2386,258.4637,101.6199,4.4816e-05,4.42e-06,0.0,0 STARLINK-3052,1 49165U 21082AM  24025.58636740  .00000442  00000-0  44816-4 0  9997,2 49165  69.9997  86.2386 0002870 258.4637 101.6199 14.98340642131228,6950.16,96.106,574.02,570.03,0.0
49165.0,STARLINK-3052,PAYLOAD,2024-01-26 10:54:07,14.98332536,0.0002962,69.9998,84.0506,258.0147,102.068,0.00012632,1.415e-05,0.0,0 STARLINK-3052,1 49165U 21082AM  24026.45424926  .00001415  00000-0  12632-3 0  9996,2 49165  69.9998  84.0506 0002962 258.0147 102.0680 14.98332536131361,6950.185,96.107,574.109,569.991,0.0
49165.0,STARLINK-3052,PAYLOAD,2024-01-26 14:06:23,14.98333865,0.0002949,69.9998,83.714,257.9073,102.1756,0.00013654,1.537e-05,0.0,0 STARLINK-3052,1 49165U 21082AM  24026.58776782  .00001537  00000-0  13654-3 0  9990,2 49165  69.9998  83.7140 0002949 257.9073 102.1756 14.98333865131374,6950.181,96.107,574.096,569.996,0.0
49165.0,STARLINK-3052,PAYLOAD,2024-01-27 12:32:16,14.9832861,0.000266,70.0004,81.3576,258.2853,101.8007,-4.6437e-05,-6.47e-06,0.0,0 STARLINK-3052,1 49165U 21082AM  24027.52241575 -.00000647  00000-0 -46437-4 0  9991,2 49165  70.0004  81.3576 0002660 258.2853 101.8007 14.98328610131526,6950.197,96.107,573.911,570.213,0.0
49165.0,STARLINK-3052,PAYLOAD,2024-01-28 10:58:09,14.98332326,0.0002795,69.9999,79.0003,259.8455,100.2389,2.7206e-05,2.32e-06,0.0,0 STARLINK-3052,1 49165U 21082AM  24028.45705015  .00000232  00000-0  27206-4 0  9999,2 49165  69.9999  79.0003 0002795 259.8455 100.2389 14.98332326131669,6950.186,96.107,573.993,570.108,0.0
49165.0,STARLINK-3052,PAYLOAD,2024-01-28 12:34:17,14.98332872,0.0002796,69.9999,78.8321,259.8967,100.1877,3.4521e-05,3.19e-06,0.0,0 STARLINK-3052,1 49165U 21082AM  24028.52380951  .00000319  00000-0  34521-4 0  9999,2 49165  69.9999  78.8321 0002796 259.8967 100.1877 14.98332872131665,6950.184,96.107,573.992,570.106,0.0
49165.0,STARLINK-3052,PAYLOAD,2024-01-29 11:00:10,14.98330171,0.0002705,69.9998,76.4749,261.5208,98.5645,9.3323e-05,1.021e-05,0.0,0 STARLINK-3052,1 49165U 21082AM  24029.45844927  .00001021  00000-0  93323-4 0  9996,2 49165  69.9998  76.4749 0002705 261.5208  98.5645 14.98330171131810,6950.192,96.107,573.937,570.177,0.0
49165.0,STARLINK-3052,PAYLOAD,2024-01-29 12:36:18,14.98329366,0.0002728,69.9996,76.3061,263.6213,96.4636,8.8584e-05,9.64e-06,0.0,0 STARLINK-3052,1 49165U 21082AM  24029.52520997  .00000964  00000-0  88584-4 0  9990,2 49165  69.9996  76.3061 0002728 263.6213  96.4636 14.98329366131819,6950.195,96.107,573.956,570.164,0.0
49165.0,STARLINK-3052,PAYLOAD,2024-01-30 11:02:11,14.98327217,0.0002724,69.9998,73.9497,260.7505,99.3346,-1.0006e-05,-2.12e-06,0.0,0 STARLINK-3052,1 49165U 21082AM  24030.45985413 -.00000212  00000-0 -10006-4 0  9994,2 49165  69.9998  73.9497 0002724 260.7505  99.3346 14.98327217131964,6950.201,96.107,573.96,570.173,0.0
49165.0,STARLINK-3052,PAYLOAD,2024-01-30 12:38:19,14.98327627,0.0002748,69.9997,73.7813,263.1249,96.9597,-7.5591e-06,-1.83e-06,0.0,0 STARLINK-3052,1 49165U 21082AM  24030.52661398 -.00000183  00000-0 -75591-5 0  9993,2 49165  69.9997  73.7813 0002748 263.1249  96.9597 14.98327627131967,6950.2,96.107,573.975,570.155,0.0
49165.0,STARLINK-3052,PAYLOAD,2024-01-31 03:03:31,14.98334322,0.0002831,69.9995,72.2661,265.5957,94.4878,4.1214e-05,3.99e-06,0.0,0 STARLINK-3052,1 49165U 21082AM  24031.12744777  .00000399  00000-0  41214-4 0  9994,2 49165  69.9995  72.2661 0002831 265.5957  94.4878 14.98334322132062,6950.18,96.107,574.012,570.077,0.0
49165.0,STARLINK-3052,PAYLOAD,2024-01-31 11:04:11,14.98334359,0.0002831,69.9995,71.4245,265.8618,94.2217,4.1024e-05,3.97e-06,0.0,0 STARLINK-3052,1 49165U 21082AM  24031.46124710  .00000397  00000-0  41024-4 0  9997,2 49165  69.9995  71.4245 0002831 265.8618  94.2217 14.98334359132108,6950.179,96.107,574.012,570.077,0.0
49165.0,STARLINK-3052,PAYLOAD,2024-02-01 03:05:32,14.98328997,0.0002889,69.9994,69.741,266.6374,93.4454,4.6653e-05,4.64e-06,0.0,0 STARLINK-3052,1 49165U 21082AM  24032.12884970  .00000464  00000-0  46653-4 0  9990,2 49165  69.9994  69.7410 0002889 266.6374  93.4454 14.98328997132219,6950.196,96.107,574.069,570.053,0.0
49165.0,STARLINK-3052,PAYLOAD,2024-02-01 11:06:12,14.98329056,0.0002897,69.9994,68.8995,267.3305,92.7523,4.1489e-05,4.02e-06,0.0,0 STARLINK-3052,1 49165U 21082AM  24032.46264993  .00000402  00000-0  41489-4 0  9998,2 49165  69.9994  68.8995 0002897 267.3305  92.7523 14.98329056132258,6950.196,96.107,574.074,570.047,0.0
49165.0,STARLINK-3052,PAYLOAD,2024-02-02 04:43:41,14.98333201,0.0002791,69.9996,67.0481,266.9146,93.1693,1.8831e-05,1.32e-06,0.0,0 STARLINK-3052,1 49165U 21082AM  24033.19700734  .00000132  00000-0  18831-4 0  9992,2 49165  69.9996  67.0481 0002791 266.9146  93.1693 14.98333201132375,6950.183,96.107,573.988,570.108,0.0
49165.0,STARLINK-3052,PAYLOAD,2024-02-02 12:44:21,14.9833324,0.0002777,69.9997,66.2065,265.2052,94.879,1.8826e-05,1.32e-06,0.0,0 STARLINK-3052,1 49165U 21082AM  24033.53080664  .00000132  00000-0  18826-4 0  9997,2 49165  69.9997  66.2065 0002777 265.2052  94.8790 14.98333240132411,6950.183,96.107,573.978,570.118,0.0
49165.0,STARLINK-3052,PAYLOAD,2024-02-03 11:10:14,14.98329155,0.000279,69.9997,63.8502,261.4826,98.6017,2.2862e-05,1.8e-06,0.0,0 STARLINK-3052,1 49165U 21082AM  24034.46544826  .00000180  00000-0  22862-4 0  9993,2 49165  69.9997  63.8502 0002790 261.4826  98.6017 14.98329155132562,6950.196,96.107,574.0,570.121,0.0
49165.0,STARLINK-3052,PAYLOAD,2024-02-03 19:10:54,14.98332791,0.000292,69.9993,63.0072,271.4976,88.5849,-1.6189e-05,-2.86e-06,0.0,0 STARLINK-3052,1 49165U 21082AM  24034.79924686 -.00000286  00000-0 -16189-4 0  9999,2 49165  69.9993  63.0072 0002920 271.4976  88.5849 14.98332791132600,6950.184,96.107,574.079,570.02,0.0
49165.0,STARLINK-3052,PAYLOAD,2024-02-04 11:12:15,14.9833241,0.0002884,69.9994,61.3243,271.4172,88.6657,2.8241e-05,2.44e-06,0.0,0 STARLINK-3052,1 49165U 21082AM  24035.46684627  .00000244  00000-0  28241-4 0  9996,2 49165  69.9994  61.3243 0002884 271.4172  88.6657 14.98332410132717,6950.185,96.107,574.055,570.046,0.0
49165.0,STARLINK-3052,PAYLOAD,2024-02-05 11:14:16,14.98332658,0.0002959,69.9994,58.7984,270.1345,89.9475,5.899e-05,6.11e-06,0.0,0 STARLINK-3052,1 49165U 21082AM  24036.46824422  .00000611  00000-0  58990-4 0  9998,2 49165  69.9994  58.7984 0002959 270.1345  89.9475 14.98332658132862,6950.185,96.107,574.106,569.993,0.0
